ELEKTRO-L 3             
1 44903U 19095A   26192.16641973 -.00000089  00000+0  00000+0 0  9997
2 44903   0.3148  82.1885 0001220  19.5233 323.2679  1.00271320 23944
GONETS-M 14             
1 44905U 19096A   26192.11716073 -.00000053  00000+0 -45667-3 0  9993
2 44905  82.5226  69.8041 0014355  98.6095 261.6612 12.42870396296656
GONETS-M 15             
1 44906U 19096B   26192.14652431  .00000023  00000+0  91365-4 0  9996
2 44906  82.5245  70.2512 0015974 120.5685 239.6973 12.42882978296626
GONETS-M 16             
1 44907U 19096C   26192.17236181 -.00000015  00000+0 -18257-3 0  9991
2 44907  82.5192  69.1762 0010820 159.8905 200.2603 12.42892268296613
RS-44 & BREEZE-KM R/B   
1 44909U 19096E   26191.30306078  .00000009  00000+0 -16998-4 0  9993
2 44909  82.5238 324.3444 0218581  90.3753 272.2396 12.79748953305309
JILIN-1 KUANFU 01       
1 45016U 20003A   26192.19546091  .00001716  00000+0  10691-3 0  9990
2 45016  97.5021 265.6829 0008908 211.7465 148.3229 15.10853832358956
XINGYUN-2 01            
1 45602U 20028A   26192.23366534  .00001756  00000+0  10617-3 0  9997
2 45602  97.4880 184.1591 0010713 115.2714 244.9628 15.11908157338475
XINGYUN-2 02            
1 45603U 20028B   26192.15040556  .00002013  00000+0  12212-3 0  9992
2 45603  97.5078 197.7216 0010651 180.0838 180.0393 15.11632164338457
HAIYANG-1D              
1 45721U 20036A   26192.18208671  .00000241  00000+0  10132-3 0  9999
2 45721  98.4551 133.3404 0004068  78.3601 281.8041 14.34181651318419
M2 PATHFINDER           
1 45727U 20037E   26191.98642558  .00001098  00000+0  82277-4 0  9990
2 45727  97.8152  23.4874 0013301  75.6890 284.5811 15.04784186329074
GAOFEN DUOMO (GFDM)     
1 45856U 20042A   26192.19120466  .00000412  00000+0  65605-4 0  9997
2 45856  97.7737 251.2033 0010962   3.5943 356.5345 14.76911925324553
ZIYUAN 3-03 (ZY 3-03)   
1 45939U 20051A   26192.19142368  .00000601  00000+0  30142-4 0  9992
2 45939  97.5369 259.2062 0002735 269.7646  90.3276 15.21179342330990
NEMO-HD                 
1 46277U 20061F   26192.16103172  .00007439  00000+0  15921-3 0  9999
2 46277  97.1912 253.8772 0001065  84.0989 276.0382 15.45082023325683
NAPA-1                  
1 46320U 20061BA  26192.19650381  .00055569  00000+0  43403-3 0  9993
2 46320  97.2451 267.2206 0002382 181.4478 178.6779 15.71495904325503
JILIN-1 GAOFEN 3E       
1 46457U 20065D   26192.19701102  .00050459  00000+0  47636-3 0  9991
2 46457  97.2225 245.4099 0010840  85.1297 275.1201 15.66815555323512
JILIN-1 GAOFEN 3F       
1 46458U 20065E   26192.20330640  .00043096  00000+0  46233-3 0  9990
2 46458  97.2180 242.6295 0012204  71.3524 288.9059 15.63600762323451
JILIN-1 GAOFEN 3G       
1 46459U 20065F   26192.18534498  .00085576  00000+0  54387-3 0  9993
2 46459  97.2234 249.8523 0004845 295.9876  64.0890 15.76211428323717
JILIN-1 GAOFEN 3H       
1 46460U 20065G   26192.15351613  .00064114  00000+0  49508-3 0  9992
2 46460  97.2186 245.9851 0005879 216.1652 143.9215 15.71719380323646
HAIYANG-2C              
1 46469U 20066A   26192.16761876 -.00000072  00000+0  85925-5 0  9998
2 46469  65.9958 155.5779 0007849 237.2494 122.7819 13.83372397292819
HJ-2A                   
1 46478U 20067A   26192.15488983 -.00000235  00000+0 -26624-4 0  9995
2 46478  97.8822 269.9599 0003813 166.8617 193.2693 14.76544151311798
HJ-2B                   
1 46479U 20067B   26192.19131075  .00000525  00000+0  82507-4 0  9999
2 46479  97.8888 271.0370 0001850 107.7948 252.3464 14.76508498311801
GONETS-M 17             
1 46486U 20068A   26192.19775946  .00000103  00000+0  67027-3 0  9990
2 46486  82.5004 332.5648 0022001 345.5528  14.4920 12.42874307262140
GONETS-M 18             
1 46487U 20068B   26192.16140752  .00000017  00000+0  48459-4 0  9992
2 46487  82.4958 331.6961 0019223 342.2314  17.8091 12.42874815262123
GONETS-M 19             
1 46488U 20068C   26192.13648976  .00000084  00000+0  53225-3 0  9991
2 46488  82.4982 332.1664 0013247 359.1315   0.9740 12.42893026262225
DEKART                  
1 46493U 20068H   26192.22036360  .00007730  00000+0  20977-3 0  9998
2 46493  97.8741 203.2203 0008820 186.6269 173.4859 15.37890076319468
NORBI                   
1 46494U 20068J   26192.18863921  .00014892  00000+0  27189-3 0  9994
2 46494  97.8621 210.2865 0007959 155.9428 204.2195 15.49496098319922
SALSAT                  
1 46495U 20068K   26191.42889773  .00005381  00000+0  18731-3 0  9990
2 46495  97.8857 195.9138 0008699 210.5134 149.5600 15.30129687318917
