OBJECT_NAME,OBJECT_ID,EPOCH,MEAN_MOTION,ECCENTRICITY,INCLINATION,RA_OF_ASC_NODE,ARG_OF_PERICENTER,MEAN_ANOMALY,EPHEMERIS_TYPE,CLASSIFICATION_TYPE,NORAD_CAT_ID,ELEMENT_SET_NO,REV_AT_EPOCH,BSTAR,MEAN_MOTION_DOT,MEAN_MOTION_DDOT
ELEKTRO-L 3,2019-095A,2026-07-11T03:59:38.664672,1.00271320,.000122,0.3148,82.1885,19.5233,323.2679,0,U,44903,999,2394,0,-.89E-6,0
GONETS-M 14,2019-096A,2026-07-11T02:48:42.687072,12.42870396,.0014355,82.5226,69.8041,98.6095,261.6612,0,U,44905,999,29665,-.45667E-3,-.53E-6,0
GONETS-M 15,2019-096B,2026-07-11T03:30:59.700384,12.42882978,.0015974,82.5245,70.2512,120.5685,239.6973,0,U,44906,999,29662,.91365E-4,.23E-6,0
GONETS-M 16,2019-096C,2026-07-11T04:08:12.060384,12.42892268,.001082,82.5192,69.1762,159.8905,200.2603,0,U,44907,999,29661,-.18257E-3,-.15E-6,0
RS-44 & BREEZE-KM R/B,2019-096E,2026-07-10T07:16:24.451392,12.79748953,.02185813,82.5238,324.3444,90.3753,272.2396,0,U,44909,999,30530,-.16997626E-4,.9E-7,0
JILIN-1 KUANFU 01,2020-003A,2026-07-11T04:41:27.822624,15.10853832,.0008908,97.5021,265.6829,211.7465,148.3229,0,U,45016,999,35895,.10691E-3,.1716E-4,0
XINGYUN-2 01,2020-028A,2026-07-11T05:36:28.685376,15.11908157,.0010713,97.4880,184.1591,115.2714,244.9628,0,U,45602,999,33847,.10617E-3,.1756E-4,0
XINGYUN-2 02,2020-028B,2026-07-11T03:36:35.040384,15.11632164,.0010651,97.5078,197.7216,180.0838,180.0393,0,U,45603,999,33845,.12212E-3,.2013E-4,0
HAIYANG-1D,2020-036A,2026-07-11T04:22:12.291744,14.34181651,.0004068,98.4551,133.3404,78.3601,281.8041,0,U,45721,999,31841,.10132E-3,.241E-5,0
M2 PATHFINDER,2020-037E,2026-07-10T23:40:27.170112,15.04784186,.0013301,97.8152,23.4874,75.6890,284.5811,0,U,45727,999,32907,.82277E-4,.1098E-4,0
GAOFEN DUOMO (GFDM),2020-042A,2026-07-11T04:35:20.082624,14.76911925,.0010962,97.7737,251.2033,3.5943,356.5345,0,U,45856,999,32455,.65605E-4,.412E-5,0
ZIYUAN 3-03 (ZY 3-03),2020-051A,2026-07-11T04:35:39.005952,15.21179342,.0002735,97.5369,259.2062,269.7646,90.3276,0,U,45939,999,33099,.30142E-4,.601E-5,0
NEMO-HD,2020-061F,2026-07-11T03:51:53.140608,15.45082023,.0001065,97.1912,253.8772,84.0989,276.0382,0,U,46277,999,32568,.15921E-3,.7439E-4,0
NAPA-1,2020-061BA,2026-07-11T04:42:57.929184,15.71495904,.0002382,97.2451,267.2206,181.4478,178.6779,0,U,46320,999,32550,.43403E-3,.55569E-3,0
JILIN-1 GAOFEN 3E,2020-065D,2026-07-11T04:43:41.752128,15.66815555,.001084,97.2225,245.4099,85.1297,275.1201,0,U,46457,999,32351,.47636E-3,.50459E-3,0
JILIN-1 GAOFEN 3F,2020-065E,2026-07-11T04:52:45.672960,15.63600762,.0012204,97.2180,242.6295,71.3524,288.9059,0,U,46458,999,32345,.46233E-3,.43096E-3,0
JILIN-1 GAOFEN 3G,2020-065F,2026-07-11T04:26:53.806272,15.76211428,.0004845,97.2234,249.8523,295.9876,64.0890,0,U,46459,999,32371,.54387E-3,.85576E-3,0
JILIN-1 GAOFEN 3H,2020-065G,2026-07-11T03:41:03.793632,15.71719380,.0005879,97.2186,245.9851,216.1652,143.9215,0,U,46460,999,32364,.49508E-3,.64114E-3,0
HAIYANG-2C,2020-066A,2026-07-11T04:01:22.260864,13.83372397,.0007849,65.9958,155.5779,237.2494,122.7819,0,U,46469,999,29281,.85925E-5,-.72E-6,0
HJ-2A,2020-067A,2026-07-11T03:43:02.481312,14.76544151,.0003813,97.8822,269.9599,166.8617,193.2693,0,U,46478,999,31179,-.26624E-4,-.235E-5,0
HJ-2B,2020-067B,2026-07-11T04:35:29.248800,14.76508498,.000185,97.8888,271.0370,107.7948,252.3464,0,U,46479,999,31180,.82507E-4,.525E-5,0
GONETS-M 17,2020-068A,2026-07-11T04:44:46.417344,12.42874307,.0022001,82.5004,332.5648,345.5528,14.4920,0,U,46486,999,26214,.67027E-3,.103E-5,0
GONETS-M 18,2020-068B,2026-07-11T03:52:25.609728,12.42874815,.0019223,82.4958,331.6961,342.2314,17.8091,0,U,46487,999,26212,.48459E-4,.17E-6,0
GONETS-M 19,2020-068C,2026-07-11T03:16:32.715264,12.42893026,.0013247,82.4982,332.1664,359.1315,0.9740,0,U,46488,999,26222,.53225E-3,.84E-6,0
DEKART,2020-068H,2026-07-11T05:17:19.415040,15.37890076,.000882,97.8741,203.2203,186.6269,173.4859,0,U,46493,999,31946,.20977E-3,.773E-4,0
NORBI,2020-068J,2026-07-11T04:31:38.427744,15.49496098,.0007959,97.8621,210.2865,155.9428,204.2195,0,U,46494,999,31992,.27189E-3,.14892E-3,0
SALSAT,2020-068K,2026-07-10T10:17:36.763872,15.30129687,.00086995,97.8857,195.9138,210.5134,149.5600,0,U,46495,999,31891,.18731159E-3,.5381E-4,0
